[{"OBJECT_NAME":"STARLINK-4615","OBJECT_ID":"2022-104AJ","EPOCH":"2026-03-09T17:33:37.723104","MEAN_MOTION":15.08842231,"ECCENTRICITY":0.00012229,"INCLINATION":53.2169,"RA_OF_ASC_NODE":233.7698,"ARG_OF_PERICENTER":96.1,"MEAN_ANOMALY":264.0131,"EPHEMERIS_TYPE":0,"CLASSIFICATION_TYPE":"U","NORAD_CAT_ID":53620,"ELEMENT_SET_NO":999,"REV_AT_EPOCH":19575,"BSTAR":2.8121478e-5,"MEAN_MOTION_DOT":1.6e-6,"MEAN_MOTION_DDOT":0},{"OBJECT_NAME":"PSLV DEB","OBJECT_ID":"2001-049PR","EPOCH":"2026-03-09T15:06:31.993344","MEAN_MOTION":15.1271322,"ECCENTRICITY":0.0041907,"INCLINATION":98.4927,"RA_OF_ASC_NODE":1.3381,"ARG_OF_PERICENTER":112.6989,"MEAN_ANOMALY":247.8677,"EPHEMERIS_TYPE":0,"CLASSIFICATION_TYPE":"U","NORAD_CAT_ID":34221,"ELEMENT_SET_NO":999,"REV_AT_EPOCH":29932,"BSTAR":0.00024868,"MEAN_MOTION_DOT":4.366e-5,"MEAN_MOTION_DDOT":0}]
